CALSPHERE 1             
1 00900U 64063C   24200.14818043  .00001148  00000+0  11893-2 0  9992
2 00900  90.2024  56.0421 0023534 246.7085 243.0599 13.75132042975286
CALSPHERE 2             
1 00902U 64063E   24199.65189747  .00000108  00000+0  14819-3 0  9996
2 00902  90.2171  59.6649 0020473  97.3351 328.1335 13.52805083761684
LCS 1                   
1 01361U 65034C   24199.49536990  .00000007  00000+0 -15266-3 0  9999
2 01361  32.1453  38.3338 0006614 152.0303 208.0551  9.89305697140596
TEMPSAT 1               
1 01512U 65065E   24200.07520377  .00000084  00000+0  14951-3 0  9994
2 01512  89.9529 213.9446 0071331  52.9018  13.5256 13.33520083866866
CALSPHERE 4A            
1 01520U 65065H   24199.81278444  .00000161  00000+0  29417-3 0  9996
2 01520  89.9472 127.8954 0067046 277.6113 136.6813 13.36080566869318
OPS 5712 (P/L 160)      
1 02826U 67053A   24200.24647367  .00012225  00000+0  25493-2 0  9992
2 02826  69.9255 290.9498 0004475 334.3418  25.7498 14.60075408963999
OPS 5712 (P/L 153)      
1 02874U 67053H   24200.31697091  .00000162  00000+0  15509-3 0  9997
2 02874  69.9728 173.0588 0006847   2.2785 357.8350 13.96603580909678
SURCAL 150B             
1 02909U 67053J   24200.50304182  .00026314  00000+0  32649-2 0  9993
2 02909  69.9381 233.1197 0002122 324.6176  35.4834 14.82553844976171
RIGIDSPHERE 2 (LCS 4)   
1 05398U 71067E   24200.19226029  .00002590  00000+0  86798-3 0  9991
2 05398  87.6283 172.6457 0062862  31.8229 328.6742 14.35886190773725
COSMOS 2493 (SKRL-756 1)
1 39490U 13078A   24200.54611045  .00006057  00000+0  55599-3 0  9991
2 39490  82.4140 221.2800 0016984  81.3026 279.0117 14.94593348573629
COSMOS 2494 (SKRL-756 2)
1 39491U 13078B   24200.16317075  .00006324  00000+0  55250-3 0  9997
2 39491  82.4136 213.5580 0020494  54.0263 306.2856 14.96479129574003
